FLOCK 4H-33             
1 66736U 25276BY  26188.73120411  .00003984  00000+0  18211-3 0  9993
2 66736  97.4210 262.3286 0002005 180.8666 179.2566 15.21131053 33569
FLOCK 4H-34             
1 66737U 25276BZ  26188.78223216  .00004398  00000+0  20277-3 0  9991
2 66737  97.4225 262.3046 0001787 192.2023 167.9169 15.20771715 32814
FLOCK 4H-35             
1 66738U 25276CA  26188.75854613  .00004680  00000+0  21486-3 0  9997
2 66738  97.4186 262.2216 0001934 169.9532 190.1743 15.20890561 32850
FLOCK 4H-36             
1 66739U 25276CB  26188.73013845  .00003989  00000+0  18483-3 0  9994
2 66739  97.4235 262.2466 0001684 210.7466 149.3671 15.20657203 33554
