{"fetched_at":"2026-07-08T07:03:36.533Z","source":"https://celestrak.org/NORAD/elements/gp.php?GROUP=planet&FORMAT=JSON","constellation":"superdove","records":[{"OBJECT_NAME":"FLOCK 4H-33","OBJECT_ID":"2025-276BY","EPOCH":"2026-07-07T17:32:56.035104","CLASSIFICATION_TYPE":"U","MEAN_MOTION":15.21131053,"ECCENTRICITY":0.0002005,"INCLINATION":97.421,"RA_OF_ASC_NODE":262.3286,"ARG_OF_PERICENTER":180.8666,"MEAN_ANOMALY":179.2566,"EPHEMERIS_TYPE":0,"NORAD_CAT_ID":66736,"ELEMENT_SET_NO":999,"REV_AT_EPOCH":3356,"BSTAR":0.00018211,"MEAN_MOTION_DOT":0.00003984,"MEAN_MOTION_DDOT":0},{"OBJECT_NAME":"FLOCK 4H-34","OBJECT_ID":"2025-276BZ","EPOCH":"2026-07-07T18:46:24.858624","CLASSIFICATION_TYPE":"U","MEAN_MOTION":15.20771715,"ECCENTRICITY":0.0001787,"INCLINATION":97.4225,"RA_OF_ASC_NODE":262.3046,"ARG_OF_PERICENTER":192.2023,"MEAN_ANOMALY":167.9169,"EPHEMERIS_TYPE":0,"NORAD_CAT_ID":66737,"ELEMENT_SET_NO":999,"REV_AT_EPOCH":3281,"BSTAR":0.00020277,"MEAN_MOTION_DOT":0.00004398,"MEAN_MOTION_DDOT":0},{"OBJECT_NAME":"FLOCK 4H-35","OBJECT_ID":"2025-276CA","EPOCH":"2026-07-07T18:12:18.385632","CLASSIFICATION_TYPE":"U","MEAN_MOTION":15.20890561,"ECCENTRICITY":0.0001934,"INCLINATION":97.4186,"RA_OF_ASC_NODE":262.2216,"ARG_OF_PERICENTER":169.9532,"MEAN_ANOMALY":190.1743,"EPHEMERIS_TYPE":0,"NORAD_CAT_ID":66738,"ELEMENT_SET_NO":999,"REV_AT_EPOCH":3285,"BSTAR":0.00021486,"MEAN_MOTION_DOT":0.0000468,"MEAN_MOTION_DDOT":0},{"OBJECT_NAME":"FLOCK 4H-36","OBJECT_ID":"2025-276CB","EPOCH":"2026-07-07T17:31:23.962080","CLASSIFICATION_TYPE":"U","MEAN_MOTION":15.20657203,"ECCENTRICITY":0.0001684,"INCLINATION":97.4235,"RA_OF_ASC_NODE":262.2466,"ARG_OF_PERICENTER":210.7466,"MEAN_ANOMALY":149.3671,"EPHEMERIS_TYPE":0,"NORAD_CAT_ID":66739,"ELEMENT_SET_NO":999,"REV_AT_EPOCH":3355,"BSTAR":0.00018483,"MEAN_MOTION_DOT":0.00003989,"MEAN_MOTION_DDOT":0}]}
